CCSDS_OMM_VERS = 2.0
CREATION_DATE  = 
ORIGINATOR     = 

OBJECT_NAME    = CZ-4B R/B
OBJECT_ID      = 2025-314B
CENTER_NAME    = EARTH
REF_FRAME      = TEME
TIME_SYSTEM    = UTC
MEAN_ELEMENT_THEORY = SGP/SGP4

EPOCH          = 2026-01-11T03:47:39.233472
MEAN_MOTION    = 15.68665877
ECCENTRICITY   = .01412439
INCLINATION    = 97.3748
RA_OF_ASC_NODE = 88.9617
ARG_OF_PERICENTER = 333.9410
MEAN_ANOMALY   = 25.4786

EPHEMERIS_TYPE = 0
CLASSIFICATION_TYPE = U
NORAD_CAT_ID   = 67301
ELEMENT_SET_NO = 999
REV_AT_EPOCH   = 184
BSTAR          = .56068492E-3
MEAN_MOTION_DOT = .112772E-2
MEAN_MOTION_DDOT = .5808941E-5

CCSDS_OMM_VERS = 2.0
CREATION_DATE  = 
ORIGINATOR     = 

OBJECT_NAME    = 2025-315A
OBJECT_ID      = 2025-315A
CENTER_NAME    = EARTH
REF_FRAME      = TEME
TIME_SYSTEM    = UTC
MEAN_ELEMENT_THEORY = SGP/SGP4

EPOCH          = 2026-01-09T20:22:03.715968
MEAN_MOTION    = 1.00271810
ECCENTRICITY   = .00012576
INCLINATION    = 2.9981
RA_OF_ASC_NODE = 99.3155
ARG_OF_PERICENTER = 300.6872
MEAN_ANOMALY   = 87.9274

EPHEMERIS_TYPE = 0
CLASSIFICATION_TYPE = U
NORAD_CAT_ID   = 67302
ELEMENT_SET_NO = 999
REV_AT_EPOCH   = 11
BSTAR          = 0
MEAN_MOTION_DOT = -.57E-6
MEAN_MOTION_DDOT = 0

CCSDS_OMM_VERS = 2.0
CREATION_DATE  = 
ORIGINATOR     = 

OBJECT_NAME    = CZ-7A R/B
OBJECT_ID      = 2025-315B
CENTER_NAME    = EARTH
REF_FRAME      = TEME
TIME_SYSTEM    = UTC
MEAN_ELEMENT_THEORY = SGP/SGP4

EPOCH          = 2026-01-10T22:26:48.071040
MEAN_MOTION    = 2.42445260
ECCENTRICITY   = .72043917
INCLINATION    = 19.5473
RA_OF_ASC_NODE = 96.0817
ARG_OF_PERICENTER = 187.1899
MEAN_ANOMALY   = 149.7331

EPHEMERIS_TYPE = 0
CLASSIFICATION_TYPE = U
NORAD_CAT_ID   = 67303
ELEMENT_SET_NO = 999
REV_AT_EPOCH   = 27
BSTAR          = .26611208E-2
MEAN_MOTION_DOT = .110616E-2
MEAN_MOTION_DDOT = .7773E-8

CCSDS_OMM_VERS = 2.0
CREATION_DATE  = 
ORIGINATOR     = 

OBJECT_NAME    = CSG-3
OBJECT_ID      = 2026-001A
CENTER_NAME    = EARTH
REF_FRAME      = TEME
TIME_SYSTEM    = UTC
MEAN_ELEMENT_THEORY = SGP/SGP4

EPOCH          = 2026-01-11T07:22:30.218880
MEAN_MOTION    = 14.81533956
ECCENTRICITY   = .00040206
INCLINATION    = 97.8614
RA_OF_ASC_NODE = 197.2654
ARG_OF_PERICENTER = 151.5953
MEAN_ANOMALY   = 208.5480

EPHEMERIS_TYPE = 0
CLASSIFICATION_TYPE = U
NORAD_CAT_ID   = 67304
ELEMENT_SET_NO = 999
REV_AT_EPOCH   = 122
BSTAR          = .66933017E-4
MEAN_MOTION_DOT = .473E-5
MEAN_MOTION_DDOT = 0

CCSDS_OMM_VERS = 2.0
CREATION_DATE  = 
ORIGINATOR     = 

OBJECT_NAME    = STARLINK-36490
OBJECT_ID      = 2026-002A
CENTER_NAME    = EARTH
REF_FRAME      = TEME
TIME_SYSTEM    = UTC
MEAN_ELEMENT_THEORY = SGP/SGP4

EPOCH          = 2026-01-11T06:00:02.000160
MEAN_MOTION    = 15.97818240
ECCENTRICITY   = .00019483
INCLINATION    = 42.9990
RA_OF_ASC_NODE = 299.2289
ARG_OF_PERICENTER = 268.2423
MEAN_ANOMALY   = 151.9949

EPHEMERIS_TYPE = 0
CLASSIFICATION_TYPE = U
NORAD_CAT_ID   = 67305
ELEMENT_SET_NO = 999
REV_AT_EPOCH   = 224
BSTAR          = -.21430877E-2
MEAN_MOTION_DOT = -.1009945E-1
MEAN_MOTION_DDOT = .32629092E-3

CCSDS_OMM_VERS = 2.0
CREATION_DATE  = 
ORIGINATOR     = 

OBJECT_NAME    = STARLINK-36488
OBJECT_ID      = 2026-002B
CENTER_NAME    = EARTH
REF_FRAME      = TEME
TIME_SYSTEM    = UTC
MEAN_ELEMENT_THEORY = SGP/SGP4

EPOCH          = 2026-01-11T06:00:02.000160
MEAN_MOTION    = 15.97876748
ECCENTRICITY   = .00020796
INCLINATION    = 42.9991
RA_OF_ASC_NODE = 299.2254
ARG_OF_PERICENTER = 272.7880
MEAN_ANOMALY   = 148.7815

EPHEMERIS_TYPE = 0
CLASSIFICATION_TYPE = U
NORAD_CAT_ID   = 67306
ELEMENT_SET_NO = 999
REV_AT_EPOCH   = 218
BSTAR          = -.2115433E-2
MEAN_MOTION_DOT = -.1000299E-1
MEAN_MOTION_DDOT = .32082672E-3

CCSDS_OMM_VERS = 2.0
CREATION_DATE  = 
ORIGINATOR     = 

OBJECT_NAME    = STARLINK-36481
OBJECT_ID      = 2026-002C
CENTER_NAME    = EARTH
REF_FRAME      = TEME
TIME_SYSTEM    = UTC
MEAN_ELEMENT_THEORY = SGP/SGP4

EPOCH          = 2026-01-11T06:00:02.000160
MEAN_MOTION    = 15.98044709
ECCENTRICITY   = .00019238
INCLINATION    = 42.9992
RA_OF_ASC_NODE = 299.2170
ARG_OF_PERICENTER = 272.6828
MEAN_ANOMALY   = 152.3078

EPHEMERIS_TYPE = 0
CLASSIFICATION_TYPE = U
NORAD_CAT_ID   = 67307
ELEMENT_SET_NO = 999
REV_AT_EPOCH   = 218
BSTAR          = -.21346798E-2
MEAN_MOTION_DOT = -.1018717E-1
MEAN_MOTION_DDOT = .33226401E-3

CCSDS_OMM_VERS = 2.0
CREATION_DATE  = 
ORIGINATOR     = 

OBJECT_NAME    = STARLINK-36449
OBJECT_ID      = 2026-002D
CENTER_NAME    = EARTH
REF_FRAME      = TEME
TIME_SYSTEM    = UTC
MEAN_ELEMENT_THEORY = SGP/SGP4

EPOCH          = 2026-01-11T06:00:02.000160
MEAN_MOTION    = 15.98122466
ECCENTRICITY   = .00019636
INCLINATION    = 42.9991
RA_OF_ASC_NODE = 299.2130
ARG_OF_PERICENTER = 275.4766
MEAN_ANOMALY   = 151.1029

EPHEMERIS_TYPE = 0
CLASSIFICATION_TYPE = U
NORAD_CAT_ID   = 67308
ELEMENT_SET_NO = 999
REV_AT_EPOCH   = 224
BSTAR          = -.2130928E-2
MEAN_MOTION_DOT = -.1021352E-1
MEAN_MOTION_DDOT = .33410432E-3

CCSDS_OMM_VERS = 2.0
CREATION_DATE  = 
ORIGINATOR     = 

OBJECT_NAME    = STARLINK-36482
OBJECT_ID      = 2026-002E
CENTER_NAME    = EARTH
REF_FRAME      = TEME
TIME_SYSTEM    = UTC
MEAN_ELEMENT_THEORY = SGP/SGP4

EPOCH          = 2026-01-11T06:00:02.000160
MEAN_MOTION    = 15.98541757
ECCENTRICITY   = .00019153
INCLINATION    = 42.9995
RA_OF_ASC_NODE = 299.1925
ARG_OF_PERICENTER = 272.2637
MEAN_ANOMALY   = 162.6452

EPHEMERIS_TYPE = 0
CLASSIFICATION_TYPE = U
NORAD_CAT_ID   = 67309
ELEMENT_SET_NO = 999
REV_AT_EPOCH   = 218
BSTAR          = -.21187857E-2
MEAN_MOTION_DOT = -.1039563E-1
MEAN_MOTION_DDOT = .34657523E-3

CCSDS_OMM_VERS = 2.0
CREATION_DATE  = 
ORIGINATOR     = 

OBJECT_NAME    = STARLINK-36491
OBJECT_ID      = 2026-002F
CENTER_NAME    = EARTH
REF_FRAME      = TEME
TIME_SYSTEM    = UTC
MEAN_ELEMENT_THEORY = SGP/SGP4

EPOCH          = 2026-01-11T06:00:02.000160
MEAN_MOTION    = 15.97987046
ECCENTRICITY   = .00020788
INCLINATION    = 42.9993
RA_OF_ASC_NODE = 299.2203
ARG_OF_PERICENTER = 272.4073
MEAN_ANOMALY   = 151.2686

EPHEMERIS_TYPE = 0
CLASSIFICATION_TYPE = U
NORAD_CAT_ID   = 67310
ELEMENT_SET_NO = 999
REV_AT_EPOCH   = 218
BSTAR          = -.21317836E-2
MEAN_MOTION_DOT = -.1014135E-1
MEAN_MOTION_DDOT = .32934442E-3

CCSDS_OMM_VERS = 2.0
CREATION_DATE  = 
ORIGINATOR     = 

OBJECT_NAME    = STARLINK-36495
OBJECT_ID      = 2026-002G
CENTER_NAME    = EARTH
REF_FRAME      = TEME
TIME_SYSTEM    = UTC
MEAN_ELEMENT_THEORY = SGP/SGP4

EPOCH          = 2026-01-11T06:00:02.000160
MEAN_MOTION    = 15.98214929
ECCENTRICITY   = .00019344
INCLINATION    = 42.9993
RA_OF_ASC_NODE = 299.2083
ARG_OF_PERICENTER = 273.4905
MEAN_ANOMALY   = 154.9206

EPHEMERIS_TYPE = 0
CLASSIFICATION_TYPE = U
NORAD_CAT_ID   = 67311
ELEMENT_SET_NO = 999
REV_AT_EPOCH   = 234
BSTAR          = -.21268269E-2
MEAN_MOTION_DOT = -.1024649E-1
MEAN_MOTION_DDOT = .33640099E-3

CCSDS_OMM_VERS = 2.0
CREATION_DATE  = 
ORIGINATOR     = 

OBJECT_NAME    = STARLINK-36485
OBJECT_ID      = 2026-002H
CENTER_NAME    = EARTH
REF_FRAME      = TEME
TIME_SYSTEM    = UTC
MEAN_ELEMENT_THEORY = SGP/SGP4

EPOCH          = 2026-01-11T06:00:02.000160
MEAN_MOTION    = 15.98315320
ECCENTRICITY   = .00018861
INCLINATION    = 42.9993
RA_OF_ASC_NODE = 299.2032
ARG_OF_PERICENTER = 273.3424
MEAN_ANOMALY   = 157.0481

EPHEMERIS_TYPE = 0
CLASSIFICATION_TYPE = U
NORAD_CAT_ID   = 67312
ELEMENT_SET_NO = 999
REV_AT_EPOCH   = 218
BSTAR          = -.21235397E-2
MEAN_MOTION_DOT = -.10288E-1
MEAN_MOTION_DDOT = .33924815E-3

CCSDS_OMM_VERS = 2.0
CREATION_DATE  = 
ORIGINATOR     = 

OBJECT_NAME    = STARLINK-36445
OBJECT_ID      = 2026-002J
CENTER_NAME    = EARTH
REF_FRAME      = TEME
TIME_SYSTEM    = UTC
MEAN_ELEMENT_THEORY = SGP/SGP4

EPOCH          = 2026-01-11T06:00:02.000160
MEAN_MOTION    = 15.98366359
ECCENTRICITY   = .00018785
INCLINATION    = 42.9990
RA_OF_ASC_NODE = 299.2004
ARG_OF_PERICENTER = 270.4413
MEAN_ANOMALY   = 161.0471

EPHEMERIS_TYPE = 0
CLASSIFICATION_TYPE = U
NORAD_CAT_ID   = 67313
ELEMENT_SET_NO = 999
REV_AT_EPOCH   = 234
BSTAR          = -.21158794E-2
MEAN_MOTION_DOT = -.1028041E-1
MEAN_MOTION_DDOT = .33897413E-3

CCSDS_OMM_VERS = 2.0
CREATION_DATE  = 
ORIGINATOR     = 

OBJECT_NAME    = STARLINK-36476
OBJECT_ID      = 2026-002K
CENTER_NAME    = EARTH
REF_FRAME      = TEME
TIME_SYSTEM    = UTC
MEAN_ELEMENT_THEORY = SGP/SGP4

EPOCH          = 2026-01-11T06:00:02.000160
MEAN_MOTION    = 15.98469386
ECCENTRICITY   = .00019226
INCLINATION    = 42.9994
RA_OF_ASC_NODE = 299.1957
ARG_OF_PERICENTER = 274.1888
MEAN_ANOMALY   = 159.2505

EPHEMERIS_TYPE = 0
CLASSIFICATION_TYPE = U
NORAD_CAT_ID   = 67314
ELEMENT_SET_NO = 999
REV_AT_EPOCH   = 218
BSTAR          = -.21228448E-2
MEAN_MOTION_DOT = -.103734E-1
MEAN_MOTION_DDOT = .34496095E-3

CCSDS_OMM_VERS = 2.0
CREATION_DATE  = 
ORIGINATOR     = 

OBJECT_NAME    = STARLINK-36463
OBJECT_ID      = 2026-002L
CENTER_NAME    = EARTH
REF_FRAME      = TEME
TIME_SYSTEM    = UTC
MEAN_ELEMENT_THEORY = SGP/SGP4

EPOCH          = 2026-01-11T06:00:02.000160
MEAN_MOTION    = 15.98617683
ECCENTRICITY   = .00019894
INCLINATION    = 42.9992
RA_OF_ASC_NODE = 299.1875
ARG_OF_PERICENTER = 268.3160
MEAN_ANOMALY   = 168.2044

EPHEMERIS_TYPE = 0
CLASSIFICATION_TYPE = U
NORAD_CAT_ID   = 67315
ELEMENT_SET_NO = 999
REV_AT_EPOCH   = 224
BSTAR          = -.20926592E-2
MEAN_MOTION_DOT = -.103125E-1
MEAN_MOTION_DDOT = .34181138E-3

